[
  {
    "COMMENT": "GENERATED VIA SPACETRACK.ORG API",
    "ORIGINATOR": "18 SPCS",
    "NORAD_CAT_ID": "48621",
    "OBJECT_NAME": "HAIYANG 2D",
    "OBJECT_TYPE": "PAYLOAD",
    "CLASSIFICATION_TYPE": "U",
    "INTLDES": "21043A",
    "EPOCH": "2023-05-18 12:25:49",
    "EPOCH_MICROSECONDS": "899360",
    "MEAN_MOTION": "13.8336954",
    "ECCENTRICITY": "0.0008781",
    "INCLINATION": "65.9976",
    "RA_OF_ASC_NODE": "227.2244",
    "ARG_OF_PERICENTER": "259.0021",
    "MEAN_ANOMALY": "101.0059",
    "EPHEMERIS_TYPE": "0",
    "ELEMENT_SET_NO": "999",
    "REV_AT_EPOCH": "10088",
    "BSTAR": "0.000095011",
    "MEAN_MOTION_DOT": "0.00000023",
    "MEAN_MOTION_DDOT": "0",
    "FILE": "3911178",
    "TLE_LINE0": "0 HAIYANG 2D",
    "TLE_LINE1": "1 48621U 21043A   23138.51793865  .00000023  00000-0  95011-4 0  9997",
    "TLE_LINE2": "2 48621  65.9976 227.2244 0008781 259.0021 101.0059 13.83369540100886",
    "OBJECT_ID": "2021-043A",
    "OBJECT_NUMBER": "48621",
    "SEMIMAJOR_AXIS": "7330.097",
    "PERIOD": "104.094",
    "APOGEE": "958.398",
    "PERIGEE": "945.525",
    "DECAYED": "0"
  },
  {
    "COMMENT": "GENERATED VIA SPACETRACK.ORG API",
    "ORIGINATOR": "18 SPCS",
    "NORAD_CAT_ID": "48621",
    "OBJECT_NAME": "HAIYANG 2D",
    "OBJECT_TYPE": "PAYLOAD",
    "CLASSIFICATION_TYPE": "U",
    "INTLDES": "21043A",
    "EPOCH": "2023-05-18 14:09:56",
    "EPOCH_MICROSECONDS": "187360",
    "MEAN_MOTION": "13.83369574",
    "ECCENTRICITY": "0.0008781",
    "INCLINATION": "65.9976",
    "RA_OF_ASC_NODE": "227.0444",
    "ARG_OF_PERICENTER": "259.0103",
    "MEAN_ANOMALY": "100.9978",
    "EPHEMERIS_TYPE": "0",
    "ELEMENT_SET_NO": "999",
    "REV_AT_EPOCH": "10085",
    "BSTAR": "0.00010302",
    "MEAN_MOTION_DOT": "0.00000032",
    "MEAN_MOTION_DDOT": "0",
    "FILE": "3911221",
    "TLE_LINE0": "0 HAIYANG 2D",
    "TLE_LINE1": "1 48621U 21043A   23138.59023365  .00000032  00000-0  10302-3 0  9995",
    "TLE_LINE2": "2 48621  65.9976 227.0444 0008781 259.0103 100.9978 13.83369574100859",
    "OBJECT_ID": "2021-043A",
    "OBJECT_NUMBER": "48621",
    "SEMIMAJOR_AXIS": "7330.097",
    "PERIOD": "104.094",
    "APOGEE": "958.398",
    "PERIGEE": "945.525",
    "DECAYED": "0"
  },
  {
    "COMMENT": "GENERATED VIA SPACETRACK.ORG API",
    "ORIGINATOR": "18 SPCS",
    "NORAD_CAT_ID": "48621",
    "OBJECT_NAME": "HAIYANG 2D",
    "OBJECT_TYPE": "PAYLOAD",
    "CLASSIFICATION_TYPE": "U",
    "INTLDES": "21043A",
    "EPOCH": "2023-05-18 15:54:02",
    "EPOCH_MICROSECONDS": "476224",
    "MEAN_MOTION": "13.83369581",
    "ECCENTRICITY": "0.0008779",
    "INCLINATION": "65.9976",
    "RA_OF_ASC_NODE": "226.8644",
    "ARG_OF_PERICENTER": "259.0235",
    "MEAN_ANOMALY": "100.9846",
    "EPHEMERIS_TYPE": "0",
    "ELEMENT_SET_NO": "999",
    "REV_AT_EPOCH": "10090",
    "BSTAR": "0.000097999",
    "MEAN_MOTION_DOT": "0.00000027",
    "MEAN_MOTION_DDOT": "0",
    "FILE": "3911350",
    "TLE_LINE0": "0 HAIYANG 2D",
    "TLE_LINE1": "1 48621U 21043A   23138.66252866  .00000027  00000-0  97999-4 0  9995",
    "TLE_LINE2": "2 48621  65.9976 226.8644 0008779 259.0235 100.9846 13.83369581100909",
    "OBJECT_ID": "2021-043A",
    "OBJECT_NUMBER": "48621",
    "SEMIMAJOR_AXIS": "7330.097",
    "PERIOD": "104.094",
    "APOGEE": "958.397",
    "PERIGEE": "945.526",
    "DECAYED": "0"
  },
  {
    "COMMENT": "GENERATED VIA SPACETRACK.ORG API",
    "ORIGINATOR": "18 SPCS",
    "NORAD_CAT_ID": "48621",
    "OBJECT_NAME": "HAIYANG 2D",
    "OBJECT_TYPE": "PAYLOAD",
    "CLASSIFICATION_TYPE": "U",
    "INTLDES": "21043A",
    "EPOCH": "2023-05-18 21:06:21",
    "EPOCH_MICROSECONDS": "341088",
    "MEAN_MOTION": "13.83369615",
    "ECCENTRICITY": "0.0008774",
    "INCLINATION": "65.9976",
    "RA_OF_ASC_NODE": "226.3245",
    "ARG_OF_PERICENTER": "259.0455",
    "MEAN_ANOMALY": "100.9626",
    "EPHEMERIS_TYPE": "0",
    "ELEMENT_SET_NO": "999",
    "REV_AT_EPOCH": "10089",
    "BSTAR": "0.000092464",
    "MEAN_MOTION_DOT": "0.00000021",
    "MEAN_MOTION_DDOT": "0",
    "FILE": "3911388",
    "TLE_LINE0": "0 HAIYANG 2D",
    "TLE_LINE1": "1 48621U 21043A   23138.87941367  .00000021  00000-0  92464-4 0  9995",
    "TLE_LINE2": "2 48621  65.9976 226.3245 0008774 259.0455 100.9626 13.83369615100892",
    "OBJECT_ID": "2021-043A",
    "OBJECT_NUMBER": "48621",
    "SEMIMAJOR_AXIS": "7330.096",
    "PERIOD": "104.094",
    "APOGEE": "958.393",
    "PERIGEE": "945.530",
    "DECAYED": "0"
  },
  {
    "COMMENT": "GENERATED VIA SPACETRACK.ORG API",
    "ORIGINATOR": "18 SPCS",
    "NORAD_CAT_ID": "48621",
    "OBJECT_NAME": "HAIYANG 2D",
    "OBJECT_TYPE": "PAYLOAD",
    "CLASSIFICATION_TYPE": "U",
    "INTLDES": "21043A",
    "EPOCH": "2023-05-19 04:02:46",
    "EPOCH_MICROSECONDS": "499136",
    "MEAN_MOTION": "13.83369621",
    "ECCENTRICITY": "0.0008764",
    "INCLINATION": "65.9976",
    "RA_OF_ASC_NODE": "225.6046",
    "ARG_OF_PERICENTER": "259.0444",
    "MEAN_ANOMALY": "100.9638",
    "EPHEMERIS_TYPE": "0",
    "ELEMENT_SET_NO": "999",
    "REV_AT_EPOCH": "10097",
    "BSTAR": "0.000078691",
    "MEAN_MOTION_DOT": "0.00000005",
    "MEAN_MOTION_DDOT": "0",
    "FILE": "3911629",
    "TLE_LINE0": "0 HAIYANG 2D",
    "TLE_LINE1": "1 48621U 21043A   23139.16859374  .00000005  00000-0  78691-4 0  9992",
    "TLE_LINE2": "2 48621  65.9976 225.6046 0008764 259.0444 100.9638 13.83369621100979",
    "OBJECT_ID": "2021-043A",
    "OBJECT_NUMBER": "48621",
    "SEMIMAJOR_AXIS": "7330.096",
    "PERIOD": "104.094",
    "APOGEE": "958.385",
    "PERIGEE": "945.537",
    "DECAYED": "0"
  },
  {
    "COMMENT": "GENERATED VIA SPACETRACK.ORG API",
    "ORIGINATOR": "18 SPCS",
    "NORAD_CAT_ID": "48621",
    "OBJECT_NAME": "HAIYANG 2D",
    "OBJECT_TYPE": "PAYLOAD",
    "CLASSIFICATION_TYPE": "U",
    "INTLDES": "21043A",
    "EPOCH": "2023-05-19 09:15:05",
    "EPOCH_MICROSECONDS": "361408",
    "MEAN_MOTION": "13.83369626",
    "ECCENTRICITY": "0.0008766",
    "INCLINATION": "65.9976",
    "RA_OF_ASC_NODE": "225.0647",
    "ARG_OF_PERICENTER": "259.0391",
    "MEAN_ANOMALY": "100.9692",
    "EPHEMERIS_TYPE": "0",
    "ELEMENT_SET_NO": "999",
    "REV_AT_EPOCH": "10100",
    "BSTAR": "0.00007028",
    "MEAN_MOTION_DOT": "-0.00000004",
    "MEAN_MOTION_DDOT": "0",
    "FILE": "3911914",
    "TLE_LINE0": "0 HAIYANG 2D",
    "TLE_LINE1": "1 48621U 21043A   23139.38547872 -.00000004  00000-0  70280-4 0  9999",
    "TLE_LINE2": "2 48621  65.9976 225.0647 0008766 259.0391 100.9692 13.83369626101003",
    "OBJECT_ID": "2021-043A",
    "OBJECT_NUMBER": "48621",
    "SEMIMAJOR_AXIS": "7330.096",
    "PERIOD": "104.094",
    "APOGEE": "958.387",
    "PERIGEE": "945.536",
    "DECAYED": "0"
  },
  {
    "COMMENT": "GENERATED VIA SPACETRACK.ORG API",
    "ORIGINATOR": "18 SPCS",
    "NORAD_CAT_ID": "48621",
    "OBJECT_NAME": "HAIYANG 2D",
    "OBJECT_TYPE": "PAYLOAD",
    "CLASSIFICATION_TYPE": "U",
    "INTLDES": "21043A",
    "EPOCH": "2023-05-19 17:55:36",
    "EPOCH_MICROSECONDS": "800544",
    "MEAN_MOTION": "13.83369698",
    "ECCENTRICITY": "0.0008764",
    "INCLINATION": "65.9976",
    "RA_OF_ASC_NODE": "224.1647",
    "ARG_OF_PERICENTER": "259.0741",
    "MEAN_ANOMALY": "100.9342",
    "EPHEMERIS_TYPE": "0",
    "ELEMENT_SET_NO": "999",
    "REV_AT_EPOCH": "10105",
    "BSTAR": "0.000076216",
    "MEAN_MOTION_DOT": "0.00000003",
    "MEAN_MOTION_DDOT": "0",
    "FILE": "3912256",
    "TLE_LINE0": "0 HAIYANG 2D",
    "TLE_LINE1": "1 48621U 21043A   23139.74695371  .00000003  00000-0  76216-4 0  9990",
    "TLE_LINE2": "2 48621  65.9976 224.1647 0008764 259.0741 100.9342 13.83369698101056",
    "OBJECT_ID": "2021-043A",
    "OBJECT_NUMBER": "48621",
    "SEMIMAJOR_AXIS": "7330.096",
    "PERIOD": "104.094",
    "APOGEE": "958.385",
    "PERIGEE": "945.537",
    "DECAYED": "0"
  },
  {
    "COMMENT": "GENERATED VIA SPACETRACK.ORG API",
    "ORIGINATOR": "18 SPCS",
    "NORAD_CAT_ID": "48621",
    "OBJECT_NAME": "HAIYANG 2D",
    "OBJECT_TYPE": "PAYLOAD",
    "CLASSIFICATION_TYPE": "U",
    "INTLDES": "21043A",
    "EPOCH": "2023-05-19 21:23:49",
    "EPOCH_MICROSECONDS": "375680",
    "MEAN_MOTION": "13.83369703",
    "ECCENTRICITY": "0.0008762",
    "INCLINATION": "65.9976",
    "RA_OF_ASC_NODE": "223.8048",
    "ARG_OF_PERICENTER": "259.1047",
    "MEAN_ANOMALY": "100.9035",
    "EPHEMERIS_TYPE": "0",
    "ELEMENT_SET_NO": "999",
    "REV_AT_EPOCH": "10103",
    "BSTAR": "0.000072424",
    "MEAN_MOTION_DOT": "-0.00000002",
    "MEAN_MOTION_DDOT": "0",
    "FILE": "3912278",
    "TLE_LINE0": "0 HAIYANG 2D",
    "TLE_LINE1": "1 48621U 21043A   23139.89154370 -.00000002  00000-0  72424-4 0  9992",
    "TLE_LINE2": "2 48621  65.9976 223.8048 0008762 259.1047 100.9035 13.83369703101039",
    "OBJECT_ID": "2021-043A",
    "OBJECT_NUMBER": "48621",
    "SEMIMAJOR_AXIS": "7330.096",
    "PERIOD": "104.094",
    "APOGEE": "958.384",
    "PERIGEE": "945.538",
    "DECAYED": "0"
  }
]